[
    {
        "Altitude(m)": 611967.1438748033,
        "Argument of Periapsis(deg)": 0.0,
        "Eccentricity": 0.0,
        "Inclination(deg)": 60.0,
        "Latitude(deg)": 59.14005530848697,
        "Longitude(deg)": -98.9078844993123,
        "Mean Anomaly(deg)": 98.18179999999998,
        "RAAN(deg)": 255.0,
        "Satellite Name": "Test1 1128",
        "Satellite Number": 1128,
        "Semi-Major Axis(m)": 6980739.136638005,
        "Time(s)": 0
    },
    {
        "Altitude(m)": 611934.343419286,
        "Argument of Periapsis(deg)": 0.00010418945913296404,
        "Eccentricity": 0.0,
        "Inclination(deg)": 60.0,
        "Latitude(deg)": 58.98641683095211,
        "Longitude(deg)": -97.7846425831308,
        "Mean Anomaly(deg)": 98.80190614546184,
        "RAAN(deg)": 254.99957995086027,
        "Satellite Name": "Test1 1128",
        "Satellite Number": 1128,
        "Semi-Major Axis(m)": 6980739.136638005,
        "Time(s)": 10
    }
]